IRIDIUM 144             
1 43249U 18030A   25336.20429841  .00000098  00000+0  27761-4 0  9996
2 43249  86.3980  12.7509 0002217  98.9895 261.1552 14.34217177401905
IRIDIUM 149             
1 43250U 18030B   25336.21063990  .00000138  00000+0  42375-4 0  9991
2 43250  86.3977  12.7173 0002163  95.0546 265.0897 14.34217064401923
IRIDIUM 157             
1 43251U 18030C   25336.15990138  .00000052  00000+0  11349-4 0  9990
2 43251  86.3981  12.7874 0002305  90.3564 269.7896 14.34217761401893
IRIDIUM 140             
1 43252U 18030D   25336.17892990  .00000240  00000+0  78785-4 0  9996
2 43252  86.3979  12.7924 0002134  97.2636 262.8803 14.34219674401957
IRIDIUM 145             
1 43253U 18030E   25336.16624333  .00000271  00000+0  89790-4 0  9992
2 43253  86.3980  12.7704 0002331 103.2654 256.8802 14.34218526401882
IRIDIUM 146             
1 43254U 18030F   25336.14721540  .00000109  00000+0  31835-4 0  9996
2 43254  86.3979  12.7913 0002281  98.1728 261.9726 14.34218188401898
IRIDIUM 148             
1 43255U 18030G   25336.18527126  .00000018  00000+0 -69344-6 0  9993
2 43255  86.3975  12.8151 0002166  92.7570 267.3874 14.34217951401933
IRIDIUM 142             
1 43256U 18030H   25336.15355806  .00000177  00000+0  56028-4 0  9993
2 43256  86.3977  12.7249 0002356 103.1352 257.0107 14.34217551401895
